{
    "links": {
        "self": "http://www.neowsapp.com/rest/v1/neo/3725971?api_key=iIulBulltgU6a56xZRHN4H3l9WmuAYTsLGpBGhQ2"
    },
    "id": "3725971",
    "neo_reference_id": "3725971",
    "name": "(2015 PP227)",
    "designation": "2015 PP227",
    "nasa_jpl_url": "http://ssd.jpl.nasa.gov/sbdb.cgi?sstr=3725971",
    "absolute_magnitude_h": 24.1,
    "estimated_diameter": {
        "kilometers": {
            "estimated_diameter_min": 0.040230458,
            "estimated_diameter_max": 0.0899580388
        },
        "meters": {
            "estimated_diameter_min": 40.2304579834,
            "estimated_diameter_max": 89.9580388169
        },
        "miles": {
            "estimated_diameter_min": 0.0249980399,
            "estimated_diameter_max": 0.0558973165
        },
        "feet": {
            "estimated_diameter_min": 131.9896957704,
            "estimated_diameter_max": 295.1379320721
        }
    },
    "is_potentially_hazardous_asteroid": false,
    "close_approach_data": [
        {
            "close_approach_date": "2015-07-26",
            "close_approach_date_full": "2015-Jul-26 16:57",
            "epoch_date_close_approach": 1437929820000,
            "relative_velocity": {
                "kilometers_per_second": "7.0894496263",
                "kilometers_per_hour": "25522.0186545231",
                "miles_per_hour": "15858.389868973"
            },
            "miss_distance": {
                "astronomical": "0.1042727869",
                "lunar": "40.5621141041",
                "kilometers": "15598986.819203903",
                "miles": "9692760.9501557414"
            },
            "orbiting_body": "Earth"
        }
    ],
    "orbital_data": {
        "orbit_id": "4",
        "orbit_determination_date": "2017-04-06 08:32:30",
        "first_observation_date": "2015-08-09",
        "last_observation_date": "2015-08-20",
        "data_arc_in_days": 11,
        "observations_used": 15,
        "orbit_uncertainty": "9",
        "minimum_orbit_intersection": ".102767",
        "jupiter_tisserand_invariant": "3.563",
        "epoch_osculation": "2457245.5",
        "eccentricity": ".4735175609307547",
        "semi_major_axis": "2.121039010305403",
        "inclination": "9.347167143425768",
        "ascending_node_longitude": "129.641355519929",
        "orbital_period": "1128.291746102755",
        "perihelion_distance": "1.116689791506607",
        "perihelion_argument": "172.2060597102686",
        "aphelion_distance": "3.1253882291042",
        "perihelion_time": "2457228.001054508245",
        "mean_anomaly": "5.583325765513566",
        "mean_motion": ".3190664127815169",
        "equinox": "J2000",
        "orbit_class": {
            "orbit_class_type": "AMO",
            "orbit_class_description": "Near-Earth asteroid orbits similar to that of 1221 Amor",
            "orbit_class_range": "1.017 AU < q (perihelion) < 1.3 AU"
        }
    },
    "is_sentry_object": false
}